     3.00           N                   E                   RINEX VERSION / TYPE
BRD_USR             ESA                 20190112 191710  UTCPGM / RUN BY / DATE
 GAL   3.6000E+01  1.1719E-01  1.0681E-03  0.0000E+00       IONOSPHERIC CORR
GAUT  2.7939677238E-09-1.776356839E-15 518400 2035 GSTB   0 TIME SYSTEM CORR
GPGA  8.7311491370E-11-3.108624469E-15      0 2036 GSTB   0 TIME SYSTEM CORR
                                                            END OF HEADER
E30 2019 01 12 17 20 00 5.193998629693E-03-3.045386165468E-11 0.000000000000E+00
     7.200000000000E+01-1.406250000000E+00 2.810117052655E-09 1.750616694201E+00
    -1.117587089539E-07 3.126639639959E-04 6.811693310738E-06 5.440614105225E+03
     5.808000000000E+05-4.842877388000E-08-2.945859062694E+00-4.097819328308E-08
     9.876866674228E-01 2.080312500000E+02 5.837468435820E-01-5.449869866098E-09
    -4.046597128442E-10 2.580000000000E+02 2.035000000000E+03 0.000000000000E+00
     3.120000000000E+00 0.000000000000E+00-2.793967723846E-09 0.000000000000E+00
     5.817000000000E+05 0.000000000000E+00 0.000000000000E+00 0.000000000000E+00
E11 2019 01 12 17 20 00 5.719651991967E-03 7.531752999057E-13 0.000000000000E+00
     7.200000000000E+01 2.768750000000E+01 2.871548182937E-09 2.942010872779E+00
     1.380220055580E-06 2.751657739282E-04 4.431232810020E-06 5.440603330612E+03
     5.808000000000E+05-1.676380634308E-08-8.639775191945E-01-1.490116119385E-08
     9.819304900091E-01 2.545312500000E+02-3.471839654229E-01-5.683093866528E-09
     2.871548182937E-10 2.580000000000E+02 2.035000000000E+03 0.000000000000E+00
     3.120000000000E+00 0.000000000000E+00-1.839362084866E-08 0.000000000000E+00
     5.817500000000E+05 0.000000000000E+00 0.000000000000E+00 0.000000000000E+00
E11 2019 01 12 17 20 00 5.719650769606E-03 7.673861546209E-13 0.000000000000E+00
     7.200000000000E+01 2.768750000000E+01 2.871548182937E-09 2.942010872779E+00
     1.380220055580E-06 2.751657739282E-04 4.431232810020E-06 5.440603330612E+03
     5.808000000000E+05-1.676380634308E-08-8.639775191945E-01-1.490116119385E-08
     9.819304900091E-01 2.545312500000E+02-3.471839654229E-01-5.683093866528E-09
     2.871548182937E-10 5.210000000000E+02 2.035000000000E+03 0.000000000000E+00
     3.120000000000E+00 0.000000000000E+00-1.839362084866E-08-2.002343535423E-08
     5.817550000000E+05 0.000000000000E+00 0.000000000000E+00 0.000000000000E+00
E25 2019 01 12 17 20 00 1.925883814692E-03-1.135447291745E-11 0.000000000000E+00
     7.200000000000E+01 1.718750000000E+00 2.887620280975E-09-1.022072921143E+00
     1.080334186554E-07 1.896737376228E-04 6.455928087234E-06 5.440627305984E+03
     5.808000000000E+05 3.539025783539E-08-2.951880827034E+00-7.636845111847E-08
     9.897020609034E-01 2.140937500000E+02-1.336237268971E+00-5.574517915332E-09
    -4.007309777680E-10 2.580000000000E+02 2.035000000000E+03 0.000000000000E+00
     3.120000000000E+00 0.000000000000E+00-1.396983861923E-09 0.000000000000E+00
     5.818000000000E+05 0.000000000000E+00 0.000000000000E+00 0.000000000000E+00
E25 2019 01 12 17 20 00 1.925883814692E-03-1.134026206273E-11 0.000000000000E+00
     7.200000000000E+01 1.718750000000E+00 2.887620280975E-09-1.022072921143E+00
     1.080334186554E-07 1.896737376228E-04 6.455928087234E-06 5.440627305984E+03
     5.808000000000E+05 3.539025783539E-08-2.951880827034E+00-7.636845111847E-08
     9.897020609034E-01 2.140937500000E+02-1.336237268971E+00-5.574517915332E-09
    -4.007309777680E-10 5.210000000000E+02 2.035000000000E+03 0.000000000000E+00
     3.120000000000E+00 0.000000000000E+00-1.396983861923E-09-1.629814505577E-09
     5.818150000000E+05 0.000000000000E+00 0.000000000000E+00 0.000000000000E+00
E03 2019 01 12 17 20 00-1.214108779095E-04-4.249045559845E-12 0.000000000000E+00
     7.200000000000E+01-1.125000000000E+01 3.302280410377E-09-1.699459980644E+00
    -5.587935447693E-07 2.603466855362E-04 1.096352934837E-05 5.440619422913E+03
     5.808000000000E+05 7.450580596924E-09 1.241347643478E+00 5.587935447693E-09
     9.524491592277E-01 1.019375000000E+02 6.273597976995E-01-5.560231605965E-09
     1.464346710204E-10 5.210000000000E+02 2.035000000000E+03 0.000000000000E+00
     3.120000000000E+00 0.000000000000E+00-2.095475792885E-09-2.328306436539E-09
     5.818450000000E+05 0.000000000000E+00 0.000000000000E+00 0.000000000000E+00
E03 2019 01 12 17 20 00-1.214109361172E-04-4.263256414561E-12 0.000000000000E+00
     7.200000000000E+01-1.125000000000E+01 3.302280410377E-09-1.699459980644E+00
    -5.587935447693E-07 2.603466855362E-04 1.096352934837E-05 5.440619422913E+03
     5.808000000000E+05 7.450580596924E-09 1.241347643478E+00 5.587935447693E-09
     9.524491592277E-01 1.019375000000E+02 6.273597976995E-01-5.560231605965E-09
     1.464346710204E-10 2.580000000000E+02 2.035000000000E+03 0.000000000000E+00
     3.120000000000E+00 0.000000000000E+00-2.095475792885E-09 0.000000000000E+00
     5.818500000000E+05 0.000000000000E+00 0.000000000000E+00 0.000000000000E+00
E13 2019 01 12 16 40 00 3.816489479505E-04 4.405364961713E-13 0.000000000000E+00
     6.800000000000E+01 3.756250000000E+01 2.919764477053E-09 6.705755476146E-01
     1.765787601471E-06 3.426483599469E-04 4.785135388374E-06 5.440596698761E+03
     5.784000000000E+05 4.656612873077E-08-8.692507902759E-01-9.313225746155E-09
     9.851714109265E-01 2.470937500000E+02-1.508362540989E+00-5.720952586353E-09
     3.175132257003E-10 2.580000000000E+02 2.035000000000E+03 0.000000000000E+00
     3.120000000000E+00 5.600000000000E+01-4.423782229424E-09 0.000000000000E+00
     5.819000000000E+05 0.000000000000E+00 0.000000000000E+00 0.000000000000E+00
E13 2019 01 12 16 40 00 3.816481912509E-04 4.405364961713E-13 0.000000000000E+00
     6.800000000000E+01 3.756250000000E+01 2.919764477053E-09 6.705755476146E-01
     1.765787601471E-06 3.426483599469E-04 4.785135388374E-06 5.440596698761E+03
     5.784000000000E+05 4.656612873077E-08-8.692507902759E-01-9.313225746155E-09
     9.851714109265E-01 2.470937500000E+02-1.508362540989E+00-5.720952586353E-09
     3.175132257003E-10 5.210000000000E+02 2.035000000000E+03 0.000000000000E+00
     3.120000000000E+00 4.550000000000E+02-4.423782229424E-09-5.355104804039E-09
     5.819050000000E+05 0.000000000000E+00 0.000000000000E+00 0.000000000000E+00
E24 2019 01 12 16 40 00 6.289584387559E-03-1.969624463527E-11 0.000000000000E+00
     6.800000000000E+01-2.312500000000E+00 2.904049536748E-09-2.392496964713E+00
    -8.568167686462E-08 4.807362565771E-04 6.319954991341E-06 5.440614246368E+03
     5.784000000000E+05 4.470348358154E-08-2.945790204603E+00-5.587935447693E-09
     9.877026380994E-01 2.180625000000E+02 4.998271082625E-01-5.558445817294E-09
    -3.632294156774E-10 5.210000000000E+02 2.035000000000E+03 0.000000000000E+00
     3.120000000000E+00 0.000000000000E+00 4.260800778866E-08 4.773028194904E-08
     5.819350000000E+05 0.000000000000E+00 0.000000000000E+00 0.000000000000E+00
E24 2019 01 12 16 40 00 6.289578857832E-03-1.971045548999E-11 0.000000000000E+00
     6.800000000000E+01-2.312500000000E+00 2.904049536748E-09-2.392496964713E+00
    -8.568167686462E-08 4.807362565771E-04 6.319954991341E-06 5.440614246368E+03
     5.784000000000E+05 4.470348358154E-08-2.945790204603E+00-5.587935447693E-09
     9.877026380994E-01 2.180625000000E+02 4.998271082625E-01-5.558445817294E-09
    -3.632294156774E-10 2.580000000000E+02 2.035000000000E+03 0.000000000000E+00
     3.120000000000E+00 0.000000000000E+00 4.260800778866E-08 0.000000000000E+00
     5.819500000000E+05 0.000000000000E+00 0.000000000000E+00 0.000000000000E+00
E03 2019 01 12 17 20 00-1.214108779095E-04-4.249045559845E-12 0.000000000000E+00
     7.200000000000E+01-1.125000000000E+01 3.302280410377E-09-1.699459980644E+00
    -5.587935447693E-07 2.603466855362E-04 1.096352934837E-05 5.440619422913E+03
     5.808000000000E+05 7.450580596924E-09 1.241347643478E+00 5.587935447693E-09
     9.524491592277E-01 1.019375000000E+02 6.273597976995E-01-5.560231605965E-09
     1.464346710204E-10 5.210000000000E+02 2.035000000000E+03 0.000000000000E+00
     3.120000000000E+00 0.000000000000E+00-2.095475792885E-09-2.328306436539E-09
     5.819950000000E+05 0.000000000000E+00 0.000000000000E+00 0.000000000000E+00
E03 2019 01 12 17 20 00-1.214109361172E-04-4.263256414561E-12 0.000000000000E+00
     7.200000000000E+01-1.125000000000E+01 3.302280410377E-09-1.699459980644E+00
    -5.587935447693E-07 2.603466855362E-04 1.096352934837E-05 5.440619422913E+03
     5.808000000000E+05 7.450580596924E-09 1.241347643478E+00 5.587935447693E-09
     9.524491592277E-01 1.019375000000E+02 6.273597976995E-01-5.560231605965E-09
     1.464346710204E-10 2.580000000000E+02 2.035000000000E+03 0.000000000000E+00
     3.120000000000E+00 0.000000000000E+00-2.095475792885E-09 0.000000000000E+00
     5.820000000000E+05 0.000000000000E+00 0.000000000000E+00 0.000000000000E+00
E01 2019 01 12 17 30 00-5.193213000894E-04-8.185452315956E-12 0.000000000000E+00
     7.300000000000E+01 1.281250000000E+00 2.924764685332E-09 6.732878942862E-01
    -1.862645149231E-08 9.594054426998E-05 5.992129445076E-06 5.440612607956E+03
     5.814000000000E+05 1.862645149231E-09-2.949266661183E+00 1.490116119385E-08
     9.901340971852E-01 2.221562500000E+02-6.185983432869E-01-5.550945504876E-09
    -4.275178078327E-10 5.210000000000E+02 2.035000000000E+03 0.000000000000E+00
     3.120000000000E+00 0.000000000000E+00-4.656612873077E-09-5.122274160385E-09
     5.820850000000E+05 0.000000000000E+00 0.000000000000E+00 0.000000000000E+00
